INTELSAT 10 (IS-10)     
1 26766U 01019A   25295.16483448 -.00000157  00000+0  00000+0 0  9991
2 26766   8.5034  61.6672 0005317 199.6504 189.5447  0.99080505 43222
INTELSAT 902 (IS-902)   
1 26900U 01039A   25293.32763697 -.00000277  00000+0  00000+0 0  9999
2 26900   5.5084  74.6994 0004245 131.8341 250.3787  1.00271011 88298
INTELSAT 904 (IS-904)   
1 27380U 02007A   25295.25792906 -.00000214  00000+0  00000+0 0  9998
2 27380   6.3222  72.0262 0001711  96.2981 284.0061  1.00271192 49389
DIRECTV 5 (TEMPO 1)     
1 27426U 02023A   25295.38506968 -.00000046  00000+0  00000+0 0  9995
2 27426   4.2668  78.2680 0003553 149.2466 192.0868  1.00272816 85732
INTELSAT 905 (IS-905)   
1 27438U 02027A   25295.02297699  .00000105  00000+0  00000+0 0  9996
2 27438   6.1519  72.6561 0002392 141.2988  47.8644  1.00274752 48973
GALAXY 3C (G-3C)        
1 27445U 02030A   25295.38810302 -.00000142  00000+0  00000+0 0  9991
2 27445   3.1303  81.0363 0001735  65.5109 289.4234  1.00272277 44106
INTELSAT 906 (IS-906)   
1 27513U 02041A   25295.49097687  .00000025  00000+0  00000+0 0  9993
2 27513   5.1961  75.8395 0004699 167.0190  29.2174  1.00271202 84643
GALAXY 13 (HORIZONS-1)  
1 27954U 03044A   25295.45183480  .00000143  00000+0  00000+0 0  9990
2 27954   0.7998  87.1311 0002227 125.1654 191.5159  1.00270573 44183
INTELSAT 10-02          
1 28358U 04022A   25295.33540943 -.00000001  00000+0  00000+0 0  9998
2 28358   0.0085 171.2524 0000546  67.9234 271.6207  1.00273107 78178
XM-3 (RHYTHM)           
1 28626U 05008A   25291.60821091 -.00000237  00000+0  00000+0 0  9994
2 28626   0.0390  81.2895 0003740  85.4323 354.1902  1.00533587 75648
DIRECTV 8               
1 28659U 05019A   25295.38333632  .00000010  00000+0  00000+0 0  9998
2 28659   0.0136 257.1167 0003528 334.5814 178.3488  1.00273128 74685
GALAXY 28 (G-28)        
1 28702U 05022A   25295.46073006 -.00000176  00000+0  00000+0 0  9990
2 28702   2.6839  81.8812 0001376 152.1041 234.3386  1.00271972 49593
GALAXY 16 (G-16)        
1 29236U 06023A   25295.38732301 -.00000118  00000+0  00000+0 0  9992
2 29236   0.0192 206.1191 0002541   8.7624 216.6506  1.00271316 70582
DIRECTV 9S              
1 29494U 06043A   25295.31547600 -.00000103  00000+0  00000+0 0  9993
2 29494   1.8030  83.7868 0003034 134.3562 185.2433  1.00271839 48993
GALAXY 17 (G-17)        
1 31307U 07016B   25295.46142338 -.00000196  00000+0  00000+0 0  9997
2 31307   2.3663  82.8968 0006703 162.4735 226.9211  1.00271803 67425
DIRECTV 10              
1 31862U 07032A   25295.02973701 -.00000095  00000+0  00000+0 0  9997
2 31862   0.0191  50.2484 0000852 184.4071  64.0017  1.00272248 43209
INTELSAT 11 (IS-11)     
1 32253U 07044B   25295.49635022 -.00000010  00000+0  00000+0 0  9994
2 32253   2.9422  81.5727 0008651 138.4938  80.9206  0.99048220 66092
HORIZONS-2              
1 32388U 07063B   25295.46367675 -.00000243  00000+0  00000+0 0  9995
2 32388   1.9847  83.5467 0003514 155.8584 244.8959  1.00272460 65438
DIRECTV 11              
1 32729U 08013A   25295.03043036 -.00000118  00000+0  00000+0 0  9996
2 32729   0.0040  63.2015 0000402  40.4780 198.8181  1.00272837 43200
GALAXY 18 (G-18)        
1 32951U 08024A   25295.23981564  .00000034  00000+0  00000+0 0  9990
2 32951   0.0138 257.0476 0003129 318.6060 138.6078  1.00271827 43462
INTELSAT 25 (IS-25)     
1 33153U 08034A   25295.25792906 -.00000213  00000+0  00000+0 0  9998
2 33153   2.0908  83.2441 0004417 148.6970 220.3832  1.00272654 63319
GALAXY 19 (G-19)        
1 33376U 08045A   25295.24501566 -.00000130  00000+0  00000+0 0  9994
2 33376   0.0205 257.2478 0002699 311.8651 173.0455  1.00272070 62515
FM-5                    
1 35493U 09034A   25295.24709567 -.00000191  00000+0  00000+0 0  9993
2 35493   0.0217 263.7379 0000892 208.8337 281.1872  1.00271147 44250
INTELSAT 14 (IS-14)     
1 36097U 09064A   25295.25532905  .00000000  00000+0  00000+0 0  9996
2 36097   0.0119 262.7342 0002386 310.4842 224.6540  1.00270211 58218
INTELSAT 15 (IS-15)     
1 36106U 09067A   25295.13841752  .00000000  00000+0  00000+0 0  9990
2 36106   0.0161 249.4176 0002255 329.2947 307.0771  1.00269437 38849
DIRECTV 12              
1 36131U 09075A   25294.88708302 -.00000096  00000+0  00000+0 0  9997
2 36131   0.0220   7.8930 0000442 231.9769   7.3522  1.00272359 44167
INTELSAT 16 (IS-16)     
1 36397U 10006A   25295.24908902 -.00000236  00000+0  00000+0 0  9992
2 36397   0.0200 269.7220 0002540 316.3271 178.3739  1.00270937 57261
XM-5                    
1 37185U 10053A   25295.24137565 -.00000014  00000+0  00000+0 0  9993
2 37185   0.0584 268.7062 0000614 193.7593 260.1842  1.00271437 55099
INTELSAT 17 (IS-17)     
1 37238U 10065B   25295.13460417  .00000006  00000+0  00000+0 0  9998
2 37238   0.0184 227.7319 0002585 349.5152 288.0689  1.00274588 50863
INTELSAT 28 (IS-28)     
1 37392U 11016A   25295.25792906 -.00000215  00000+0  00000+0 0  9993
2 37392   1.1871  85.6648 0003902 131.6096 234.8509  1.00272378 50906
INTELSAT 18 (IS-18)     
1 37834U 11056A   25295.22854892  .00000062  00000+0  00000+0 0  9997
2 37834   0.0146 263.1457 0001776 306.6545  83.4208  1.00272128 51426
INTELSAT 22 (IS-22)     
1 38098U 12011A   25295.13581751 -.00000050  00000+0  00000+0 0  9991
2 38098   0.0084 244.7234 0001793 326.2905 300.8308  1.00271074  4801
INTELSAT 19 (IS-19)     
1 38356U 12030A   25295.22577558 -.00000046  00000+0  00000+0 0  9994
2 38356   0.0187 269.9192 0003019 299.8896  68.4194  1.00274920 48060
INTELSAT 20 (IS-20)     
1 38740U 12043A   25294.92096985 -.00000017  00000+0  00000+0 0  9999
2 38740   0.0146 161.2618 0002062  17.7225 251.6831  1.00272178 48358
INTELSAT 21 (IS-21)     
1 38749U 12045A   25295.25272904 -.00000276  00000+0  00000+0 0  9991
2 38749   0.0101 213.3082 0002418   7.8444 202.7925  1.00271986 48133
INTELSAT 23 (IS-23)     
1 38867U 12057A   25295.25368237 -.00000276  00000+0  00000+0 0  9990
2 38867   0.0155 244.2755 0001862 344.8298 200.1894  1.00266701 47568
FM-6                    
1 39360U 13058A   25295.24120231 -.00000008  00000+0  00000+0 0  9993
2 39360   0.0226 140.4198 0002677  36.1731 185.0237  1.00269958 43680
INTELSAT 30 (IS-30)     
1 40271U 14062A   25294.35997418  .00000000  00000+0  00000+0 0  9993
2 40271   0.0123 262.4032 0001709 170.3225 351.8632  1.00271701  4380
DIRECTV 14              
1 40333U 14078B   25294.53103323 -.00000119  00000+0  00000+0 0  9995
2 40333   0.0193 243.8210 0000453 300.5594 297.8109  1.00274423 39658
DIRECTV 15              
1 40663U 15026A   25295.45787005 -.00000093  00000+0  00000+0 0  9993
2 40663   0.0499  72.2155 0000386  35.2620 345.6689  1.00270298 38078
SKY MEXICO-1            
1 40664U 15026B   25295.46263674  .00000000  00000+0  00000+0 0  9993
2 40664   0.0124 249.4214 0001967 319.3863 270.1169  1.00269451 38073
INTELSAT 34 (IS-34)     
1 40874U 15039A   25295.46731676 -.00000276  00000+0  00000+0 0  9998
2 40874   0.0216 270.0031 0000631 153.5200  80.3714  1.00271161 37241
INTELSAT 31 (IS-31)     
1 41581U 16035A   25294.38913581 -.00000145  00000+0  00000+0 0  9993
2 41581   0.0169 243.6757 0001440 341.0992 210.3476  1.00272741 34282
INTELSAT 36 (IS-36)     
1 41747U 16053A   25295.49184354 -.00000015  00000+0  00000+0 0  9994
2 41747   0.0192 288.7635 0001642  64.5879 283.4029  1.00272288 33563
INTELSAT 32E (IS-32E)   
1 41945U 17007B   25295.32700272 -.00000260  00000+0  00000+0 0  9991
2 41945   0.0292 101.1606 0000782 277.3991  87.0123  1.00270619 31841
INTELSAT 35E (IS-35E)   
1 42818U 17041A   25295.47147677 -.00000228  00000+0  00000+0 0  9993
2 42818   0.0201 250.0883 0002706 338.3558 297.9646  1.00271929 30438
INTELSAT 37E (IS-37E)   
1 42950U 17059A   25295.40335645  .00000000  00000+0  00000+0 0  9993
2 42950   0.0124 236.9415 0002777 329.5683 311.7850  1.00270533 29689
AZERSPACE 2 (IS-38)     
1 43632U 18074A   25295.48725020  .00000000  00000+0  00000+0 0  9997
2 43632   0.0191 244.1909 0001262 323.7255  43.7593  1.00271775 26063
HORIZONS-3E             
1 43633U 18074B   25295.44044994  .00000000  00000+0  00000+0 0  9998
2 43633   0.0159 234.3087 0001152  63.0563  61.2989  1.00272107 25951
AT&T T-16               
1 44333U 19034A   25295.45830338 -.00000106  00000+0  00000+0 0  9997
2 44333   0.0418  75.0332 0000419  25.3796 354.8770  1.00270310 23247
INTELSAT 39 (IS-39)     
1 44476U 19049B   25295.06241051  .00000042  00000+0  00000+0 0  9994
2 44476   0.0150 253.0304 0000520 168.0147  54.1394  1.00270875 22745
GALAXY 30 (G-30)        
1 46114U 20056C   25295.45353669  .00000000  00000+0  00000+0 0  9991
2 46114   0.0114 234.9312 0002509 337.9865 216.4869  1.00271862 18906
GALAXY 33 (G-33)        
1 54026U 22128A   25295.47797610  .00000000  00000+0  00000+0 0  9994
2 54026   0.0118 248.6939 0001594 313.1322 228.4032  1.00272560 11358
GALAXY 34 (G-34)        
1 54027U 22128B   25295.45267000  .00000068  00000+0  00000+0 0  9992
2 54027   0.0172 265.1368 0001566 311.0807 208.9113  1.00273607 11528
GALAXY 31 (G-31)        
1 54243U 22153A   25295.45431669  .00000022  00000+0  00000+0 0  9994
2 54243   0.0100 196.6869 0001521  27.9952 209.0362  1.00273078  4744
GALAXY 32 (G-32)        
1 54244U 22153B   25294.38991582 -.00000168  00000+0  00000+0 0  9993
2 54244   0.0178 276.7122 0000947  14.3174 148.4490  1.00272531 10747
GALAXY 35 (G-35)        
1 54741U 22170A   25295.45986338 -.00000153  00000+0  00000+0 0  9990
2 54741   0.0118 225.7435 0001940 344.8648 253.0007  1.00272227 10519
GALAXY 36 (G-36)        
1 54742U 22170B   25295.46064338 -.00000176  00000+0  00000+0 0  9994
2 54742   0.0154 235.2180 0001209 278.3008 314.4791  1.00272847 10398
GALAXY 37 (G-37)        
1 57493U 23112A   25295.46850199  .00000057  00000+0  00000+0 0  9992
2 57493   0.0164 273.7445 0001984 305.0717 214.0302  1.00274496  8157
